IRIDIUM 112             
1 41925U 17003J   25297.73456280 -.00000685  00000+0 -25162-3 0  9991
2 41925  86.4032 186.6665 0002108  83.3687 276.7749 14.34215596459527
IRIDIUM 111             
1 41926U 17003K   25297.72187437  .00000340  00000+0  11426-3 0  9990
2 41926  86.4030 186.7373 0002207  80.9960 279.1486 14.34212952459506
IRIDIUM 113             
1 42803U 17039A   25297.70184299  .00000391  00000+0  13244-3 0  9991
2 42803  86.3967  60.5872 0002245  93.1302 267.0151 14.34218680437437
IRIDIUM 123             
1 42804U 17039B   25297.67355130  .00000065  00000+0  16050-4 0  9999
2 42804  86.3925  92.0960 0001966  82.4127 277.7292 14.34216762436190
IRIDIUM 120             
1 42805U 17039C   25297.62573068  .00000327  00000+0  10954-3 0  9994
2 42805  86.3957  60.4319 0001678  95.7287 264.4100 14.34218415437411
IRIDIUM 115             
1 42806U 17039D   25297.74037333  .00000617  00000+0  17755-3 0  9996
2 42806  86.4495  60.4805 0001797  78.2890 281.8512 14.43282339440306
IRIDIUM 118             
1 42807U 17039E   25297.70526587 -.00000024  00000+0 -15467-4 0  9990
2 42807  86.3924  92.0820 0002185  91.7809 268.3638 14.34217152436195
IRIDIUM 117             
1 42808U 17039F   25297.72429241  .00000230  00000+0  75163-4 0  9998
2 42808  86.3922  92.0336 0002093  84.4709 275.6725 14.34218275436221
